[
    {
        "Altitude(m)": 702703.6614641937,
        "Argument of Periapsis(deg)": 0.0022780242373254137,
        "Eccentricity": 0.0,
        "Inclination(deg)": 45.0,
        "Latitude(deg)": 9.88619398947715,
        "Longitude(deg)": 14.887565120388395,
        "Mean Anomaly(deg)": -194.05695667050378,
        "RAAN(deg)": 304.9978496117084,
        "Satellite Name": "Constellation 1 1352",
        "Satellite Number": 1352,
        "Semi-Major Axis(m)": 7083131.272910544,
        "Time(s)": 38
    },
    {
        "Altitude(m)": 702704.5514154792,
        "Argument of Periapsis(deg)": 0.002337972243570819,
        "Eccentricity": 0.0,
        "Inclination(deg)": 45.0,
        "Latitude(deg)": 9.843629945678163,
        "Longitude(deg)": 14.927613509254195,
        "Mean Anomaly(deg)": -193.99625553025393,
        "RAAN(deg)": 304.9977930225428,
        "Satellite Name": "Constellation 1 1352",
        "Satellite Number": 1352,
        "Semi-Major Axis(m)": 7083131.272910544,
        "Time(s)": 39
    },
    {
        "Altitude(m)": 702705.4610512223,
        "Argument of Periapsis(deg)": 0.0023979202498162246,
        "Eccentricity": 0.0,
        "Inclination(deg)": 45.0,
        "Latitude(deg)": 9.801060070966786,
        "Longitude(deg)": 14.967650552590644,
        "Mean Anomaly(deg)": -193.93555439000403,
        "RAAN(deg)": 304.9977364333772,
        "Satellite Name": "Constellation 1 1352",
        "Satellite Number": 1352,
        "Semi-Major Axis(m)": 7083131.272910544,
        "Time(s)": 40
    },
    {
        "Altitude(m)": 702706.3903857707,
        "Argument of Periapsis(deg)": 0.00245786825606163,
        "Eccentricity": 0.0,
        "Inclination(deg)": 45.0,
        "Latitude(deg)": 9.75848439276398,
        "Longitude(deg)": 15.007676301506173,
        "Mean Anomaly(deg)": -193.87485324975418,
        "RAAN(deg)": 304.9976798442117,
        "Satellite Name": "Constellation 1 1352",
        "Satellite Number": 1352,
        "Semi-Major Axis(m)": 7083131.272910544,
        "Time(s)": 41
    },
    {
        "Altitude(m)": 702707.339433402,
        "Argument of Periapsis(deg)": 0.002517816262307036,
        "Eccentricity": 0.0,
        "Inclination(deg)": 45.0,
        "Latitude(deg)": 9.715902938468659,
        "Longitude(deg)": 15.04769080708607,
        "Mean Anomaly(deg)": -193.8141521095042,
        "RAAN(deg)": 304.99762325504605,
        "Satellite Name": "Constellation 1 1352",
        "Satellite Number": 1352,
        "Semi-Major Axis(m)": 7083131.272910544,
        "Time(s)": 42
    },
    {
        "Altitude(m)": 702708.3082082935,
        "Argument of Periapsis(deg)": 0.0025777642685524413,
        "Eccentricity": 0.0,
        "Inclination(deg)": 45.0,
        "Latitude(deg)": 9.673315735458438,
        "Longitude(deg)": 15.087694120392209,
        "Mean Anomaly(deg)": -193.75345096925435,
        "RAAN(deg)": 304.9975666658805,
        "Satellite Name": "Constellation 1 1352",
        "Satellite Number": 1352,
        "Semi-Major Axis(m)": 7083131.272910544,
        "Time(s)": 43
    },
    {
        "Altitude(m)": 702709.2967245488,
        "Argument of Periapsis(deg)": 0.002637712274797847,
        "Eccentricity": 0.0,
        "Inclination(deg)": 45.0,
        "Latitude(deg)": 9.630722811088601,
        "Longitude(deg)": 15.127686124366758,
        "Mean Anomaly(deg)": -193.6927498290044,
        "RAAN(deg)": 304.99751007671495,
        "Satellite Name": "Constellation 1 1352",
        "Satellite Number": 1352,
        "Semi-Major Axis(m)": 7083131.272910544,
        "Time(s)": 44
    },
    {
        "Altitude(m)": 702710.304996188,
        "Argument of Periapsis(deg)": 0.0026976602810432526,
        "Eccentricity": 0.0,
        "Inclination(deg)": 45.0,
        "Latitude(deg)": 9.588124192694336,
        "Longitude(deg)": 15.167667206219686,
        "Mean Anomaly(deg)": -193.63204868875457,
        "RAAN(deg)": 304.9974534875494,
        "Satellite Name": "Constellation 1 1352",
        "Satellite Number": 1352,
        "Semi-Major Axis(m)": 7083131.272910544,
        "Time(s)": 45
    },
    {
        "Altitude(m)": 702711.3330371375,
        "Argument of Periapsis(deg)": 0.0027576082872886585,
        "Eccentricity": 0.0,
        "Inclination(deg)": 45.0,
        "Latitude(deg)": 9.545519907588195,
        "Longitude(deg)": 15.207637248847224,
        "Mean Anomaly(deg)": -193.57134754850463,
        "RAAN(deg)": 304.99739689838384,
        "Satellite Name": "Constellation 1 1352",
        "Satellite Number": 1352,
        "Semi-Major Axis(m)": 7083131.272910544,
        "Time(s)": 46
    },
    {
        "Altitude(m)": 702712.3808612456,
        "Argument of Periapsis(deg)": 0.0028175562935340644,
        "Eccentricity": 0.0,
        "Inclination(deg)": 45.0,
        "Latitude(deg)": 9.50290998306188,
        "Longitude(deg)": 15.24759630321986,
        "Mean Anomaly(deg)": -193.5106464082547,
        "RAAN(deg)": 304.9973403092182,
        "Satellite Name": "Constellation 1 1352",
        "Satellite Number": 1352,
        "Semi-Major Axis(m)": 7083131.272910544,
        "Time(s)": 47
    },
    {
        "Altitude(m)": 702713.4484822738,
        "Argument of Periapsis(deg)": 0.00287750429977947,
        "Eccentricity": 0.0,
        "Inclination(deg)": 45.0,
        "Latitude(deg)": 9.460294446386104,
        "Longitude(deg)": 15.287544420285036,
        "Mean Anomaly(deg)": -193.44994526800488,
        "RAAN(deg)": 304.9972837200527,
        "Satellite Name": "Constellation 1 1352",
        "Satellite Number": 1352,
        "Semi-Major Axis(m)": 7083131.272910544,
        "Time(s)": 48
    },
    {
        "Altitude(m)": 702714.5359138927,
        "Argument of Periapsis(deg)": 0.002937452306024875,
        "Eccentricity": 0.0,
        "Inclination(deg)": 45.0,
        "Latitude(deg)": 9.417673324810165,
        "Longitude(deg)": 15.327481650968053,
        "Mean Anomaly(deg)": -193.38924412775492,
        "RAAN(deg)": 304.9972271308871,
        "Satellite Name": "Constellation 1 1352",
        "Satellite Number": 1352,
        "Semi-Major Axis(m)": 7083131.272910544,
        "Time(s)": 49
    },
    {
        "Altitude(m)": 702715.6431696962,
        "Argument of Periapsis(deg)": 0.0029974003122702807,
        "Eccentricity": 0.0,
        "Inclination(deg)": 45.0,
        "Latitude(deg)": 9.37504664556277,
        "Longitude(deg)": 15.367408046171215,
        "Mean Anomaly(deg)": -193.32854298750507,
        "RAAN(deg)": 304.9971705417216,
        "Satellite Name": "Constellation 1 1352",
        "Satellite Number": 1352,
        "Semi-Major Axis(m)": 7083131.272910544,
        "Time(s)": 50
    },
    {
        "Altitude(m)": 702716.7702631918,
        "Argument of Periapsis(deg)": 0.0030573483185156866,
        "Eccentricity": 0.0,
        "Inclination(deg)": 45.0,
        "Latitude(deg)": 9.332414435851408,
        "Longitude(deg)": 15.407323656774604,
        "Mean Anomaly(deg)": -193.26784184725517,
        "RAAN(deg)": 304.99711395255594,
        "Satellite Name": "Constellation 1 1352",
        "Satellite Number": 1352,
        "Semi-Major Axis(m)": 7083131.272910544,
        "Time(s)": 51
    },
    {
        "Altitude(m)": 702717.9172078012,
        "Argument of Periapsis(deg)": 0.003117296324761092,
        "Eccentricity": 0.0,
        "Inclination(deg)": 45.0,
        "Latitude(deg)": 9.289776722862696,
        "Longitude(deg)": 15.447228365538974,
        "Mean Anomaly(deg)": -193.2071407070052,
        "RAAN(deg)": 304.99705736339035,
        "Satellite Name": "Constellation 1 1352",
        "Satellite Number": 1352,
        "Semi-Major Axis(m)": 7083131.272910544,
        "Time(s)": 52
    },
    {
        "Altitude(m)": 702719.0840168484,
        "Argument of Periapsis(deg)": 0.0031772443310064975,
        "Eccentricity": 0.0,
        "Inclination(deg)": 45.0,
        "Latitude(deg)": 9.247133533763538,
        "Longitude(deg)": 15.487122559493677,
        "Mean Anomaly(deg)": -193.14643956675533,
        "RAAN(deg)": 304.99700077422483,
        "Satellite Name": "Constellation 1 1352",
        "Satellite Number": 1352,
        "Semi-Major Axis(m)": 7083131.272910544,
        "Time(s)": 53
    },
    {
        "Altitude(m)": 702720.2707035975,
        "Argument of Periapsis(deg)": 0.0032371923372519038,
        "Eccentricity": 0.0,
        "Inclination(deg)": 45.0,
        "Latitude(deg)": 9.204484895699206,
        "Longitude(deg)": 15.527006121354828,
        "Mean Anomaly(deg)": -193.0857384265054,
        "RAAN(deg)": 304.99694418505925,
        "Satellite Name": "Constellation 1 1352",
        "Satellite Number": 1352,
        "Semi-Major Axis(m)": 7083131.272910544,
        "Time(s)": 54
    },
    {
        "Altitude(m)": 702721.4772811988,
        "Argument of Periapsis(deg)": 0.0032971403434973088,
        "Eccentricity": 0.0,
        "Inclination(deg)": 45.0,
        "Latitude(deg)": 9.161830835794946,
        "Longitude(deg)": 15.56687910191351,
        "Mean Anomaly(deg)": -193.02503728625555,
        "RAAN(deg)": 304.9968875958937,
        "Satellite Name": "Constellation 1 1352",
        "Satellite Number": 1352,
        "Semi-Major Axis(m)": 7083131.272910544,
        "Time(s)": 55
    },
    {
        "Altitude(m)": 702722.7037627373,
        "Argument of Periapsis(deg)": 0.0033570883497427146,
        "Eccentricity": 0.0,
        "Inclination(deg)": 45.0,
        "Latitude(deg)": 9.119171381155478,
        "Longitude(deg)": 15.606741551938656,
        "Mean Anomaly(deg)": -192.96433614600568,
        "RAAN(deg)": 304.9968310067281,
        "Satellite Name": "Constellation 1 1352",
        "Satellite Number": 1352,
        "Semi-Major Axis(m)": 7083131.272910544,
        "Time(s)": 56
    }
]